[{"OBJECT_NAME":"COSMOS 2503","OBJECT_ID":"2015-009A","EPOCH":"2026-03-09T16:42:37.703808","MEAN_MOTION":15.06275973,"ECCENTRICITY":0.00153206,"INCLINATION":97.8437,"RA_OF_ASC_NODE":123.7175,"ARG_OF_PERICENTER":225.745,"MEAN_ANOMALY":134.252,"EPHEMERIS_TYPE":0,"CLASSIFICATION_TYPE":"U","NORAD_CAT_ID":40420,"ELEMENT_SET_NO":999,"REV_AT_EPOCH":60395,"BSTAR":0.00019589832,"MEAN_MOTION_DOT":2.817e-5,"MEAN_MOTION_DDOT":0},{"OBJECT_NAME":"STARLINK-5189","OBJECT_ID":"2022-136B","EPOCH":"2026-03-09T22:15:48.711168","MEAN_MOTION":15.08834807,"ECCENTRICITY":0.00011561,"INCLINATION":53.2174,"RA_OF_ASC_NODE":302.8648,"ARG_OF_PERICENTER":112.2306,"MEAN_ANOMALY":247.8809,"EPHEMERIS_TYPE":0,"CLASSIFICATION_TYPE":"U","NORAD_CAT_ID":54052,"ELEMENT_SET_NO":999,"REV_AT_EPOCH":18744,"BSTAR":4.623793e-5,"MEAN_MOTION_DOT":4.48e-6,"MEAN_MOTION_DDOT":0}]
